[
  {
    "COMMENT": "GENERATED VIA SPACETRACK.ORG API",
    "ORIGINATOR": "18 SPCS",
    "NORAD_CAT_ID": "41335",
    "OBJECT_NAME": "SENTINEL 3A",
    "OBJECT_TYPE": "PAYLOAD",
    "CLASSIFICATION_TYPE": "U",
    "INTLDES": "16011A",
    "EPOCH": "2023-04-19 19:24:27",
    "EPOCH_MICROSECONDS": "627840",
    "MEAN_MOTION": "14.26739012",
    "ECCENTRICITY": "0.0001113",
    "INCLINATION": "98.6251",
    "RA_OF_ASC_NODE": "177.7095",
    "ARG_OF_PERICENTER": "106.3117",
    "MEAN_ANOMALY": "253.8186",
    "EPHEMERIS_TYPE": "0",
    "ELEMENT_SET_NO": "999",
    "REV_AT_EPOCH": "37345",
    "BSTAR": "0.00014379",
    "MEAN_MOTION_DOT": "0.00000304",
    "MEAN_MOTION_DDOT": "0",
    "FILE": "3890449",
    "TLE_LINE0": "0 SENTINEL 3A",
    "TLE_LINE1": "1 41335U 16011A   23109.80865310  .00000304  00000-0  14379-3 0  9995",
    "TLE_LINE2": "2 41335  98.6251 177.7095 0001113 106.3117 253.8186 14.26739012373450",
    "OBJECT_ID": "2016-011A",
    "OBJECT_NUMBER": "41335",
    "SEMIMAJOR_AXIS": "7180.789",
    "PERIOD": "100.929",
    "APOGEE": "803.453",
    "PERIGEE": "801.855",
    "DECAYED": "0"
  },
  {
    "COMMENT": "GENERATED VIA SPACETRACK.ORG API",
    "ORIGINATOR": "18 SPCS",
    "NORAD_CAT_ID": "41335",
    "OBJECT_NAME": "SENTINEL 3A",
    "OBJECT_TYPE": "PAYLOAD",
    "CLASSIFICATION_TYPE": "U",
    "INTLDES": "16011A",
    "EPOCH": "2023-04-19 21:05:26",
    "EPOCH_MICROSECONDS": "839104",
    "MEAN_MOTION": "14.26739058",
    "ECCENTRICITY": "0.0001113",
    "INCLINATION": "98.6251",
    "RA_OF_ASC_NODE": "177.7786",
    "ARG_OF_PERICENTER": "106.3519",
    "MEAN_ANOMALY": "253.7784",
    "EPHEMERIS_TYPE": "0",
    "ELEMENT_SET_NO": "999",
    "REV_AT_EPOCH": "37346",
    "BSTAR": "0.00014377",
    "MEAN_MOTION_DOT": "0.00000304",
    "MEAN_MOTION_DDOT": "0",
    "FILE": "3890520",
    "TLE_LINE0": "0 SENTINEL 3A",
    "TLE_LINE1": "1 41335U 16011A   23109.87878286  .00000304  00000-0  14377-3 0  9996",
    "TLE_LINE2": "2 41335  98.6251 177.7786 0001113 106.3519 253.7784 14.26739058373467",
    "OBJECT_ID": "2016-011A",
    "OBJECT_NUMBER": "41335",
    "SEMIMAJOR_AXIS": "7180.789",
    "PERIOD": "100.929",
    "APOGEE": "803.453",
    "PERIGEE": "801.854",
    "DECAYED": "0"
  },
  {
    "COMMENT": "GENERATED VIA SPACETRACK.ORG API",
    "ORIGINATOR": "18 SPCS",
    "NORAD_CAT_ID": "41335",
    "OBJECT_NAME": "SENTINEL 3A",
    "OBJECT_TYPE": "PAYLOAD",
    "CLASSIFICATION_TYPE": "U",
    "INTLDES": "16011A",
    "EPOCH": "2023-04-20 03:49:23",
    "EPOCH_MICROSECONDS": "693664",
    "MEAN_MOTION": "14.26739131",
    "ECCENTRICITY": "0.0001113",
    "INCLINATION": "98.625",
    "RA_OF_ASC_NODE": "178.0551",
    "ARG_OF_PERICENTER": "106.5548",
    "MEAN_ANOMALY": "253.5755",
    "EPHEMERIS_TYPE": "0",
    "ELEMENT_SET_NO": "999",
    "REV_AT_EPOCH": "37350",
    "BSTAR": "0.00013746",
    "MEAN_MOTION_DOT": "0.00000289",
    "MEAN_MOTION_DDOT": "0",
    "FILE": "3890557",
    "TLE_LINE0": "0 SENTINEL 3A",
    "TLE_LINE1": "1 41335U 16011A   23110.15930201  .00000289  00000-0  13746-3 0  9996",
    "TLE_LINE2": "2 41335  98.6250 178.0551 0001113 106.5548 253.5755 14.26739131373507",
    "OBJECT_ID": "2016-011A",
    "OBJECT_NUMBER": "41335",
    "SEMIMAJOR_AXIS": "7180.788",
    "PERIOD": "100.929",
    "APOGEE": "803.453",
    "PERIGEE": "801.854",
    "DECAYED": "0"
  },
  {
    "COMMENT": "GENERATED VIA SPACETRACK.ORG API",
    "ORIGINATOR": "18 SPCS",
    "NORAD_CAT_ID": "41335",
    "OBJECT_NAME": "SENTINEL 3A",
    "OBJECT_TYPE": "PAYLOAD",
    "CLASSIFICATION_TYPE": "U",
    "INTLDES": "16011A",
    "EPOCH": "2023-04-20 12:14:19",
    "EPOCH_MICROSECONDS": "749120",
    "MEAN_MOTION": "14.26739308",
    "ECCENTRICITY": "0.000112",
    "INCLINATION": "98.625",
    "RA_OF_ASC_NODE": "178.4008",
    "ARG_OF_PERICENTER": "106.5941",
    "MEAN_ANOMALY": "253.5362",
    "EPHEMERIS_TYPE": "0",
    "ELEMENT_SET_NO": "999",
    "REV_AT_EPOCH": "37355",
    "BSTAR": "0.00013187",
    "MEAN_MOTION_DOT": "0.00000276",
    "MEAN_MOTION_DDOT": "0",
    "FILE": "3890827",
    "TLE_LINE0": "0 SENTINEL 3A",
    "TLE_LINE1": "1 41335U 16011A   23110.50995080  .00000276  00000-0  13187-3 0  9996",
    "TLE_LINE2": "2 41335  98.6250 178.4008 0001120 106.5941 253.5362 14.26739308373558",
    "OBJECT_ID": "2016-011A",
    "OBJECT_NUMBER": "41335",
    "SEMIMAJOR_AXIS": "7180.788",
    "PERIOD": "100.929",
    "APOGEE": "803.457",
    "PERIGEE": "801.849",
    "DECAYED": "0"
  },
  {
    "COMMENT": "GENERATED VIA SPACETRACK.ORG API",
    "ORIGINATOR": "18 SPCS",
    "NORAD_CAT_ID": "41335",
    "OBJECT_NAME": "SENTINEL 3A",
    "OBJECT_TYPE": "PAYLOAD",
    "CLASSIFICATION_TYPE": "U",
    "INTLDES": "16011A",
    "EPOCH": "2023-04-20 17:17:17",
    "EPOCH_MICROSECONDS": "380320",
    "MEAN_MOTION": "14.26739426",
    "ECCENTRICITY": "0.0001121",
    "INCLINATION": "98.625",
    "RA_OF_ASC_NODE": "178.6082",
    "ARG_OF_PERICENTER": "106.5631",
    "MEAN_ANOMALY": "253.5673",
    "EPHEMERIS_TYPE": "0",
    "ELEMENT_SET_NO": "999",
    "REV_AT_EPOCH": "37358",
    "BSTAR": "0.00012834",
    "MEAN_MOTION_DOT": "0.00000267",
    "MEAN_MOTION_DDOT": "0",
    "FILE": "3890869",
    "TLE_LINE0": "0 SENTINEL 3A",
    "TLE_LINE1": "1 41335U 16011A   23110.72034005  .00000267  00000-0  12834-3 0  9999",
    "TLE_LINE2": "2 41335  98.6250 178.6082 0001121 106.5631 253.5673 14.26739426373588",
    "OBJECT_ID": "2016-011A",
    "OBJECT_NUMBER": "41335",
    "SEMIMAJOR_AXIS": "7180.787",
    "PERIOD": "100.929",
    "APOGEE": "803.457",
    "PERIGEE": "801.847",
    "DECAYED": "0"
  },
  {
    "COMMENT": "GENERATED VIA SPACETRACK.ORG API",
    "ORIGINATOR": "18 SPCS",
    "NORAD_CAT_ID": "41335",
    "OBJECT_NAME": "SENTINEL 3A",
    "OBJECT_TYPE": "PAYLOAD",
    "CLASSIFICATION_TYPE": "U",
    "INTLDES": "16011A",
    "EPOCH": "2023-04-20 20:39:15",
    "EPOCH_MICROSECONDS": "797664",
    "MEAN_MOTION": "14.26739464",
    "ECCENTRICITY": "0.0001122",
    "INCLINATION": "98.625",
    "RA_OF_ASC_NODE": "178.7464",
    "ARG_OF_PERICENTER": "106.6086",
    "MEAN_ANOMALY": "253.5218",
    "EPHEMERIS_TYPE": "0",
    "ELEMENT_SET_NO": "999",
    "REV_AT_EPOCH": "37360",
    "BSTAR": "0.00012398",
    "MEAN_MOTION_DOT": "0.00000256",
    "MEAN_MOTION_DDOT": "0",
    "FILE": "3891109",
    "TLE_LINE0": "0 SENTINEL 3A",
    "TLE_LINE1": "1 41335U 16011A   23110.86059951  .00000256  00000-0  12398-3 0  9994",
    "TLE_LINE2": "2 41335  98.6250 178.7464 0001122 106.6086 253.5218 14.26739464373609",
    "OBJECT_ID": "2016-011A",
    "OBJECT_NUMBER": "41335",
    "SEMIMAJOR_AXIS": "7180.787",
    "PERIOD": "100.929",
    "APOGEE": "803.458",
    "PERIGEE": "801.847",
    "DECAYED": "0"
  },
  {
    "COMMENT": "GENERATED VIA SPACETRACK.ORG API",
    "ORIGINATOR": "18 SPCS",
    "NORAD_CAT_ID": "41335",
    "OBJECT_NAME": "SENTINEL 3A",
    "OBJECT_TYPE": "PAYLOAD",
    "CLASSIFICATION_TYPE": "U",
    "INTLDES": "16011A",
    "EPOCH": "2023-04-21 11:48:08",
    "EPOCH_MICROSECONDS": "680032",
    "MEAN_MOTION": "14.26739834",
    "ECCENTRICITY": "0.0001131",
    "INCLINATION": "98.6249",
    "RA_OF_ASC_NODE": "179.3686",
    "ARG_OF_PERICENTER": "106.536",
    "MEAN_ANOMALY": "253.5945",
    "EPHEMERIS_TYPE": "0",
    "ELEMENT_SET_NO": "999",
    "REV_AT_EPOCH": "37369",
    "BSTAR": "0.00012326",
    "MEAN_MOTION_DOT": "0.00000255",
    "MEAN_MOTION_DDOT": "0",
    "FILE": "3891529",
    "TLE_LINE0": "0 SENTINEL 3A",
    "TLE_LINE1": "1 41335U 16011A   23111.49176713  .00000255  00000-0  12326-3 0  9990",
    "TLE_LINE2": "2 41335  98.6249 179.3686 0001131 106.5360 253.5945 14.26739834373691",
    "OBJECT_ID": "2016-011A",
    "OBJECT_NUMBER": "41335",
    "SEMIMAJOR_AXIS": "7180.786",
    "PERIOD": "100.929",
    "APOGEE": "803.463",
    "PERIGEE": "801.839",
    "DECAYED": "0"
  },
  {
    "COMMENT": "GENERATED VIA SPACETRACK.ORG API",
    "ORIGINATOR": "18 SPCS",
    "NORAD_CAT_ID": "41335",
    "OBJECT_NAME": "SENTINEL 3A",
    "OBJECT_TYPE": "PAYLOAD",
    "CLASSIFICATION_TYPE": "U",
    "INTLDES": "16011A",
    "EPOCH": "2023-04-21 18:32:05",
    "EPOCH_MICROSECONDS": "512128",
    "MEAN_MOTION": "14.2673998",
    "ECCENTRICITY": "0.0001133",
    "INCLINATION": "98.6249",
    "RA_OF_ASC_NODE": "179.6451",
    "ARG_OF_PERICENTER": "106.4134",
    "MEAN_ANOMALY": "253.7171",
    "EPHEMERIS_TYPE": "0",
    "ELEMENT_SET_NO": "999",
    "REV_AT_EPOCH": "37373",
    "BSTAR": "0.00011924",
    "MEAN_MOTION_DOT": "0.00000245",
    "MEAN_MOTION_DDOT": "0",
    "FILE": "3891559",
    "TLE_LINE0": "0 SENTINEL 3A",
    "TLE_LINE1": "1 41335U 16011A   23111.77228602  .00000245  00000-0  11924-3 0  9998",
    "TLE_LINE2": "2 41335  98.6249 179.6451 0001133 106.4134 253.7171 14.26739980373734",
    "OBJECT_ID": "2016-011A",
    "OBJECT_NUMBER": "41335",
    "SEMIMAJOR_AXIS": "7180.785",
    "PERIOD": "100.929",
    "APOGEE": "803.464",
    "PERIGEE": "801.837",
    "DECAYED": "0"
  }
]